[ {"EPOCH_MICROSECONDS": "773760", "BSTAR": "0", "CLASSIFICATION_TYPE": "U", "ARG_OF_PERICENTER": "66.3194", "FILE": "33908", "ECCENTRICITY": "0", "TLE_LINE0": "0 SPUTNIK 4", "ELEMENT_SET_NO": "148", "COMMENT": "GENERATED VIA SPACETRACK.ORG API", "MEAN_MOTION_DDOT": "0", "RA_OF_ASC_NODE": "254.3998", "OBJECT_ID": "1960-005A", "EPHEMERIS_TYPE": "0", "OBJECT_NAME": "SPUTNIK 4", "ORIGINATOR": "JSPOC", "TLE_LINE2": "2 00034 064.9604 254.3998 0000000 066.3194 286.6963 16.39651632131532", "TLE_LINE1": "1 00034U 60005  A 62247.41570340  .02051518 +00000-0 +00000-0 0 01481", "OBJECT_TYPE": "PAYLOAD", "MEAN_MOTION": "16.39651632", "INTLDES": "60005A", "MEAN_ANOMALY": "286.6963", "EPOCH": "1962-09-04 09:58:36", "MEAN_MOTION_DOT": "0.02051518", "NORAD_CAT_ID": "34", "INCLINATION": "64.9604", "ORDINAL": "1", "REV_AT_EPOCH": "13153", "OBJECT_NUMBER": "34"}, {"EPOCH_MICROSECONDS": "150208", "BSTAR": "0", "CLASSIFICATION_TYPE": "U", "ARG_OF_PERICENTER": "36.3819", "FILE": "33906", "ECCENTRICITY": "0", "TLE_LINE0": "0 SL-3 R/B", "ELEMENT_SET_NO": "18", "COMMENT": "GENERATED VIA SPACETRACK.ORG API", "MEAN_MOTION_DDOT": "0", "RA_OF_ASC_NODE": "44.6976", "OBJECT_ID": "1960-005B", "EPHEMERIS_TYPE": "0", "OBJECT_NAME": "SL-3 R/B", "ORIGINATOR": "JSPOC", "TLE_LINE2": "2 00035 064.8899 044.6976 0000000 036.3819 323.6180 16.27523673009903", "TLE_LINE1": "1 00035U 60005  B 60198.16679572  .03271057 +00000-0 +00000-0 0 00183", "OBJECT_TYPE": "ROCKET BODY", "MEAN_MOTION": "16.27523673", "INTLDES": "60005B", "MEAN_ANOMALY": "323.618", "EPOCH": "1960-07-16 04:00:11", "MEAN_MOTION_DOT": "0.03271057", "NORAD_CAT_ID": "35", "INCLINATION": "64.8899", "ORDINAL": "1", "REV_AT_EPOCH": "990", "OBJECT_NUMBER": "35"}, {"EPOCH_MICROSECONDS": "411424", "BSTAR": "0", "CLASSIFICATION_TYPE": "U", "ARG_OF_PERICENTER": "289.231", "FILE": "33911", "ECCENTRICITY": "0.0027048", "TLE_LINE0": "0 SPUTNIK 4 CABIN", "ELEMENT_SET_NO": "261", "COMMENT": "GENERATED VIA SPACETRACK.ORG API", "MEAN_MOTION_DDOT": "0.0017377", "RA_OF_ASC_NODE": "314.3796", "OBJECT_ID": "1960-005C", "EPHEMERIS_TYPE": "0", "OBJECT_NAME": "SPUTNIK 4 CABIN", "ORIGINATOR": "JSPOC", "TLE_LINE2": "2 00036 064.9598 314.3796 0027048 289.2310 070.4777 16.31478721308431", "TLE_LINE1": "1 00036U 60005  C 65282.77315291  .00738388 +17377-2 +00000-0 0 02614", "OBJECT_TYPE": "PAYLOAD", "MEAN_MOTION": "16.31478721", "INTLDES": "60005C", "MEAN_ANOMALY": "70.4777", "EPOCH": "1965-10-09 18:33:20", "MEAN_MOTION_DOT": "0.00738388", "NORAD_CAT_ID": "36", "INCLINATION": "64.9598", "ORDINAL": "1", "REV_AT_EPOCH": "30843", "OBJECT_NUMBER": "36"}]